{"type": "FeatureCollection", "features": [ {"type": "Feature", "properties": {"norad_id": 39019, "name": "PLEIADES 1B", "group": "resource", "lat": -60.43060310132074, "lon": 81.37436292376601, "alt_km": 705.653581845334, "timestamp": "2025-12-20T03:42:47.049018+00:00", "meta": {"OBJECT_NAME": "PLEIADES 1B", "OBJECT_ID": "2012-068A", "EPOCH": "2025-12-19T19:45:44.586144", "MEAN_MOTION": 14.58558658, "ECCENTRICITY": 0.0001168, "INCLINATION": 98.1793, "RA_OF_ASC_NODE": 66.3637, "ARG_OF_PERICENTER": 84.8595, "MEAN_ANOMALY": 275.2738, "EPHEMERIS_TYPE": 0, "CLASSIFICATION_TYPE": "U", "NORAD_CAT_ID": 39019, "ELEMENT_SET_NO": 999, "REV_AT_EPOCH": 69470, "BSTAR": 5.3428e-05, "MEAN_MOTION_DOT": 2.03e-06, "MEAN_MOTION_DDOT": 0}, "tle": {"line1": "1 39019U 12068A   25353.82343271  .00000203  00000+0  53428-4 0  9997", "line2": "2 39019  98.1793  66.3637 0001168  84.8595 275.2738 14.58558658694702"}}, "geometry": {"type": "Point", "coordinates": [81.37436292376601, -60.43060310132074]}}, {"type": "Feature", "properties": {"norad_id": 39030, "name": "GOKTURK 2", "group": "resource", "lat": -59.054585930914584, "lon": 2.4211876456567705, "alt_km": 651.9326840662097, "timestamp": "2025-12-20T03:42:47.049029+00:00", "meta": {"OBJECT_NAME": "GOKTURK 2", "OBJECT_ID": "2012-073A", "EPOCH": "2025-12-19T20:07:04.852704", "MEAN_MOTION": 14.75299795, "ECCENTRICITY": 0.0001252, "INCLINATION": 97.6888, "RA_OF_ASC_NODE": 195.1424, "ARG_OF_PERICENTER": 108.2263, "MEAN_ANOMALY": 251.9083, "EPHEMERIS_TYPE": 0, "CLASSIFICATION_TYPE": "U", "NORAD_CAT_ID": 39030, "ELEMENT_SET_NO": 999, "REV_AT_EPOCH": 69806, "BSTAR": 4.4769e-05, "MEAN_MOTION_DOT": 2.56e-06, "MEAN_MOTION_DDOT": 0}, "tle": {"line1": "1 39030U 12073A   25353.83825061  .00000256  00000+0  44769-4 0  9995", "line2": "2 39030  97.6888 195.1424 0001252 108.2263 251.9083 14.75299795698066"}}, "geometry": {"type": "Point", "coordinates": [2.4211876456567705, -59.054585930914584]}}, {"type": "Feature", "properties": {"norad_id": 39084, "name": "LANDSAT 8", "group": "resource", "lat": 68.57507420594784, "lon": 40.54034764276709, "alt_km": 695.1243487708625, "timestamp": "2025-12-20T03:42:47.049040+00:00", "meta": {"OBJECT_NAME": "LANDSAT 8", "OBJECT_ID": "2013-008A", "EPOCH": "2025-12-19T19:09:07.269984", "MEAN_MOTION": 14.57109337, "ECCENTRICITY": 0.000108, "INCLINATION": 98.2064, "RA_OF_ASC_NODE": 61.767, "ARG_OF_PERICENTER": 90.1662, "MEAN_ANOMALY": 269.966, "EPHEMERIS_TYPE": 0, "CLASSIFICATION_TYPE": "U", "NORAD_CAT_ID": 39084, "ELEMENT_SET_NO": 999, "REV_AT_EPOCH": 67177, "BSTAR": 7.4028e-05, "MEAN_MOTION_DOT": 2.88e-06, "MEAN_MOTION_DDOT": 0}, "tle": {"line1": "1 39084U 13008A   25353.79800081  .00000288  00000+0  74028-4 0  9999", "line2": "2 39084  98.2064  61.7670 0001080  90.1662 269.9660 14.57109337671771"}}, "geometry": {"type": "Point", "coordinates": [40.54034764276709, 68.57507420594784]}}, {"type": "Feature", "properties": {"norad_id": 39086, "name": "SARAL", "group": "resource", "lat": 52.25770050224843, "lon": 9.195137516668442, "alt_km": 775.841756352509, "timestamp": "2025-12-20T03:42:47.049050+00:00", "meta": {"OBJECT_NAME": "SARAL", "OBJECT_ID": "2013-009A", "EPOCH": "2025-12-19T18:44:35.177280", "MEAN_MOTION": 14.32759303, "ECCENTRICITY": 0.0002955, "INCLINATION": 98.5502, "RA_OF_ASC_NODE": 177.6194, "ARG_OF_PERICENTER": 95.2625, "MEAN_ANOMALY": 264.8896, "EPHEMERIS_TYPE": 0, "CLASSIFICATION_TYPE": "U", "NORAD_CAT_ID": 39086, "ELEMENT_SET_NO": 999, "REV_AT_EPOCH": 66991, "BSTAR": 4.6766e-05, "MEAN_MOTION_DOT": 8.4e-07, "MEAN_MOTION_DDOT": 0}, "tle": {"line1": "1 39086U 13009A   25353.78096270  .00000084  00000+0  46766-4 0  9990", "line2": "2 39086  98.5502 177.6194 0002955  95.2625 264.8896 14.32759303669913"}}, "geometry": {"type": "Point", "coordinates": [9.195137516668442, 52.25770050224843]}}, {"type": "Feature", "properties": {"norad_id": 39150, "name": "GAOFEN-1", "group": "resource", "lat": -9.228914183524568, "lon": 65.98139476513359, "alt_km": 652.7521034732026, "timestamp": "2025-12-20T03:42:47.049061+00:00", "meta": {"OBJECT_NAME": "GAOFEN-1", "OBJECT_ID": "2013-018A", "EPOCH": "2025-12-19T21:14:57.842016", "MEAN_MOTION": 14.7649043, "ECCENTRICITY": 0.0018347, "INCLINATION": 97.9325, "RA_OF_ASC_NODE": 64.4187, "ARG_OF_PERICENTER": 121.2551, "MEAN_ANOMALY": 239.0459, "EPHEMERIS_TYPE": 0, "CLASSIFICATION_TYPE": "U", "NORAD_CAT_ID": 39150, "ELEMENT_SET_NO": 999, "REV_AT_EPOCH": 68178, "BSTAR": 2.9794e-05, "MEAN_MOTION_DOT": 1.57e-06, "MEAN_MOTION_DDOT": 0}, "tle": {"line1": "1 39150U 13018A   25353.88539169  .00000157  00000+0  29794-4 0  9995", "line2": "2 39150  97.9325  64.4187 0018347 121.2551 239.0459 14.76490430681785"}}, "geometry": {"type": "Point", "coordinates": [65.98139476513359, -9.228914183524568]}}, {"type": "Feature", "properties": {"norad_id": 39160, "name": "VNREDSAT 1", "group": "resource", "lat": 73.77164684241565, "lon": -102.18899246272018, "alt_km": 669.4481235315043, "timestamp": "2025-12-20T03:42:47.049071+00:00", "meta": {"OBJECT_NAME": "VNREDSAT 1", "OBJECT_ID": "2013-021B", "EPOCH": "2025-12-19T20:40:55.992288", "MEAN_MOTION": 14.64932731, "ECCENTRICITY": 0.0001229, "INCLINATION": 97.937, "RA_OF_ASC_NODE": 48.8874, "ARG_OF_PERICENTER": 80.0406, "MEAN_ANOMALY": 280.0936, "EPHEMERIS_TYPE": 0, "CLASSIFICATION_TYPE": "U", "NORAD_CAT_ID": 39160, "ELEMENT_SET_NO": 999, "REV_AT_EPOCH": 67403, "BSTAR": 0.00010533, "MEAN_MOTION_DOT": 5.18e-06, "MEAN_MOTION_DDOT": 0}, "tle": {"line1": "1 39160U 13021B   25353.86175917  .00000518  00000+0  10533-3 0  9996", "line2": "2 39160  97.9370  48.8874 0001229  80.0406 280.0936 14.64932731674035"}}, "geometry": {"type": "Point", "coordinates": [-102.18899246272018, 73.77164684241565]}}, {"type": "Feature", "properties": {"norad_id": 39227, "name": "ARIRANG-5 (KOMPSAT-5)", "group": "resource", "lat": 21.893554672875055, "lon": 1.4342345111672574, "alt_km": 553.9783233407707, "timestamp": "2025-12-20T03:42:47.049081+00:00", "meta": {"OBJECT_NAME": "ARIRANG-5 (KOMPSAT-5)", "OBJECT_ID": "2013-042A", "EPOCH": "2025-12-19T20:37:46.384032", "MEAN_MOTION": 15.04537678, "ECCENTRICITY": 0.0003446, "INCLINATION": 97.6153, "RA_OF_ASC_NODE": 178.0613, "ARG_OF_PERICENTER": 37.9391, "MEAN_ANOMALY": 322.2077, "EPHEMERIS_TYPE": 0, "CLASSIFICATION_TYPE": "U", "NORAD_CAT_ID": 39227, "ELEMENT_SET_NO": 999, "REV_AT_EPOCH": 67689, "BSTAR": 0.00017163, "MEAN_MOTION_DOT": 2.344e-05, "MEAN_MOTION_DDOT": 0}, "tle": {"line1": "1 39227U 13042A   25353.85956463  .00002344  00000+0  17163-3 0  9990", "line2": "2 39227  97.6153 178.0613 0003446  37.9391 322.2077 15.04537678676896"}}, "geometry": {"type": "Point", "coordinates": [1.4342345111672574, 21.893554672875055]}}, {"type": "Feature", "properties": {"norad_id": 39418, "name": "SKYSAT-A", "group": "resource", "lat": 0.17468727211755117, "lon": 44.115360867158536, "alt_km": 546.9740947447972, "timestamp": "2025-12-20T03:42:47.049092+00:00", "meta": {"OBJECT_NAME": "SKYSAT-A", "OBJECT_ID": "2013-066C", "EPOCH": "2025-12-19T15:00:10.317888", "MEAN_MOTION": 15.11650665, "ECCENTRICITY": 0.0021223, "INCLINATION": 97.4099, "RA_OF_ASC_NODE": 43.6246, "ARG_OF_PERICENTER": 211.5864, "MEAN_ANOMALY": 148.4094, "EPHEMERIS_TYPE": 0, "CLASSIFICATION_TYPE": "U", "NORAD_CAT_ID": 39418, "ELEMENT_SET_NO": 999, "REV_AT_EPOCH": 66134, "BSTAR": 0.0001809, "MEAN_MOTION_DOT": 3.028e-05, "MEAN_MOTION_DDOT": 0}, "tle": {"line1": "1 39418U 13066C   25353.62511942  .00003028  00000+0  18090-3 0  9992", "line2": "2 39418  97.4099  43.6246 0021223 211.5864 148.4094 15.11650665661343"}}, "geometry": {"type": "Point", "coordinates": [44.115360867158536, 0.17468727211755117]}}, {"type": "Feature", "properties": {"norad_id": 39419, "name": "DUBAISAT-2", "group": "resource", "lat": 55.34021588961175, "lon": -26.56771832560575, "alt_km": 539.5396486161444, "timestamp": "2025-12-20T03:42:47.049102+00:00", "meta": {"OBJECT_NAME": "DUBAISAT-2", "OBJECT_ID": "2013-066D", "EPOCH": "2025-12-19T21:05:49.597728", "MEAN_MOTION": 15.08418452, "ECCENTRICITY": 0.0009966, "INCLINATION": 97.4443, "RA_OF_ASC_NODE": 344.0663, "ARG_OF_PERICENTER": 294.155, "MEAN_ANOMALY": 65.8636, "EPHEMERIS_TYPE": 0, "CLASSIFICATION_TYPE": "U", "NORAD_CAT_ID": 39419, "ELEMENT_SET_NO": 999, "REV_AT_EPOCH": 65934, "BSTAR": 0.00017712, "MEAN_MOTION_DOT": 2.697e-05, "MEAN_MOTION_DDOT": 0}, "tle": {"line1": "1 39419U 13066D   25353.87904627  .00002697  00000+0  17712-3 0  9997", "line2": "2 39419  97.4443 344.0663 0009966 294.1550  65.8636 15.08418452659340"}}, "geometry": {"type": "Point", "coordinates": [-26.56771832560575, 55.34021588961175]}}, {"type": "Feature", "properties": {"norad_id": 39574, "name": "GPM-CORE", "group": "resource", "lat": 63.66131853301739, "lon": -62.84480627604435, "alt_km": 430.9342934292072, "timestamp": "2025-12-20T03:42:47.049112+00:00", "meta": {"OBJECT_NAME": "GPM-CORE", "OBJECT_ID": "2014-009C", "EPOCH": "2025-12-19T19:31:05.935296", "MEAN_MOTION": 15.44567057, "ECCENTRICITY": 0.0009425, "INCLINATION": 64.9719, "RA_OF_ASC_NODE": 188.9943, "ARG_OF_PERICENTER": 247.8879, "MEAN_ANOMALY": 112.1261, "EPHEMERIS_TYPE": 0, "CLASSIFICATION_TYPE": "U", "NORAD_CAT_ID": 39574, "ELEMENT_SET_NO": 999, "REV_AT_EPOCH": 67010, "BSTAR": 0.00012794, "MEAN_MOTION_DOT": 5.732e-05, "MEAN_MOTION_DDOT": 0}, "tle": {"line1": "1 39574U 14009C   25353.81326314  .00005732  00000+0  12794-3 0  9990", "line2": "2 39574  64.9719 188.9943 0009425 247.8879 112.1261 15.44567057670105"}}, "geometry": {"type": "Point", "coordinates": [-62.84480627604435, 63.66131853301739]}}]}